NORAD_CAT_ID,OBJECT_NAME,OBJECT_TYPE,EPOCH,MEAN_MOTION,ECCENTRICITY,INCLINATION,RA_OF_ASC_NODE,ARG_OF_PERICENTER,MEAN_ANOMALY,BSTAR,MEAN_MOTION_DOT,MEAN_MOTION_DDOT,TLE_LINE0,TLE_LINE1,TLE_LINE2,SEMIMAJOR_AXIS,PERIOD,APOGEE,PERIGEE,DECAYED
49753.0,STARLINK-3200,PAYLOAD,2023-10-23 21:52:58,15.0884317,0.0001174,53.216,84.7259,94.109,266.0037,0.00033961,5.122e-05,0.0,0 STARLINK-3200,1 49753U 21115AF  23296.91178771  .00005122  00000-0  33961-3 0  9996,2 49753  53.2160  84.7259 0001174  94.1090 266.0037 15.08843170104532,6917.871,95.437,540.548,538.924,0.0
49753.0,STARLINK-3200,PAYLOAD,2023-10-24 09:00:41,15.08826981,0.0001227,53.217,82.6441,91.1033,269.0099,0.00022391,3.276e-05,0.0,0 STARLINK-3200,1 49753U 21115AF  23297.37547484  .00003276  00000-0  22391-3 0  9991,2 49753  53.2170  82.6441 0001227  91.1033 269.0099 15.08826981105719,6917.92,95.438,540.634,538.936,0.0
49753.0,STARLINK-3200,PAYLOAD,2023-10-25 13:37:37,15.08844473,0.0001234,53.2173,77.2922,91.6439,268.4694,7.8618e-05,9.64e-06,0.0,0 STARLINK-3200,1 49753U 21115AF  23298.56778976  .00000964  00000-0  78618-4 0  9990,2 49753  53.2173  77.2922 0001234  91.6439 268.4694 15.08844473105898,6917.867,95.437,540.585,538.878,0.0
49753.0,STARLINK-3200,PAYLOAD,2023-10-26 13:28:24,15.08837834,0.000137,53.2183,72.8297,82.0943,278.0205,9.6042e-05,1.241e-05,0.0,0 STARLINK-3200,1 49753U 21115AF  23299.56139307  .00001241  00000-0  96042-4 0  9990,2 49753  53.2183  72.8297 0001370  82.0943 278.0205 15.08837834106046,6917.887,95.438,540.7,538.804,0.0
49753.0,STARLINK-3200,PAYLOAD,2023-10-26 16:39:10,15.08844535,0.0001409,53.2176,72.2376,84.8368,275.2785,8.787e-05,1.111e-05,0.0,0 STARLINK-3200,1 49753U 21115AF  23299.69386860  .00001111  00000-0  87870-4 0  9997,2 49753  53.2176  72.2376 0001409  84.8368 275.2785 15.08844535104950,6917.867,95.437,540.706,538.757,0.0
49753.0,STARLINK-3200,PAYLOAD,2023-10-27 02:11:28,15.08847162,0.0001423,53.218,70.4544,86.4178,273.6977,0.00010854,1.44e-05,0.0,0 STARLINK-3200,1 49753U 21115AF  23300.09130585  .00001440  00000-0  10854-3 0  9997,2 49753  53.2180  70.4544 0001423  86.4178 273.6977 15.08847162106120,6917.858,95.437,540.708,538.739,0.0
49753.0,STARLINK-3200,PAYLOAD,2023-10-27 14:54:33,15.08850861,0.0001443,53.2166,68.0756,84.7084,275.4073,0.00017533,2.504e-05,0.0,0 STARLINK-3200,1 49753U 21115AF  23300.62122183  .00002504  00000-0  17533-3 0  9994,2 49753  53.2166  68.0756 0001443  84.7084 275.4073 15.08850861105093,6917.847,95.437,540.71,538.714,0.0
49753.0,STARLINK-3200,PAYLOAD,2023-10-28 13:09:58,15.08834544,0.0002145,53.2179,63.9102,94.9879,265.1358,9.086e-06,-1.44e-06,0.0,0 STARLINK-3200,1 49753U 21115AF  23301.54859260 -.00000144  00000-0  90860-5 0  9994,2 49753  53.2179  63.9102 0002145  94.9879 265.1358 15.08834544106342,6917.897,95.438,541.246,538.278,0.0
49753.0,STARLINK-3200,PAYLOAD,2023-10-28 14:45:21,15.08833665,0.0001446,53.2166,63.6135,100.1,260.0155,-7.1941e-05,-1.433e-05,0.0,0 STARLINK-3200,1 49753U 21115AF  23301.61483173 -.00001433  00000-0 -71941-4 0  9999,2 49753  53.2166  63.6135 0001446 100.1000 260.0155 15.08833665105240,6917.9,95.438,540.765,538.764,0.0
49753.0,STARLINK-3200,PAYLOAD,2023-10-29 13:00:44,15.08854859,0.0001572,53.2167,59.4517,83.1366,276.9805,0.00037909,5.753e-05,0.0,0 STARLINK-3200,1 49753U 21115AF  23302.54218427  .00005753  00000-0  37909-3 0  9992,2 49753  53.2167  59.4517 0001572  83.1366 276.9805 15.08854859106497,6917.835,95.437,540.787,538.612,0.0
49753.0,STARLINK-3200,PAYLOAD,2023-10-29 14:36:07,15.08859835,0.0001584,53.2173,59.1535,94.2098,265.9075,0.00047377,7.264e-05,0.0,0 STARLINK-3200,1 49753U 21115AF  23302.60842166  .00007264  00000-0  47377-3 0  9991,2 49753  53.2173  59.1535 0001584  94.2098 265.9075 15.08859835105393,6917.82,95.436,540.781,538.589,0.0
49753.0,STARLINK-3200,PAYLOAD,2023-10-30 11:16:09,15.08836414,0.0001413,53.2198,55.2844,107.5011,252.6136,9.182e-06,-1.42e-06,0.0,0 STARLINK-3200,1 49753U 21115AF  23303.46955017 -.00000142  00000-0  91820-5 0  9999,2 49753  53.2198  55.2844 0001413 107.5011 252.6136 15.08836414106631,6917.891,95.438,540.734,538.779,0.0
49753.0,STARLINK-3200,PAYLOAD,2023-10-30 16:02:18,15.08837131,0.0001367,53.2177,54.3944,102.338,257.7765,1.1822e-05,-1e-06,0.0,0 STARLINK-3200,1 49753U 21115AF  23303.66826903 -.00000100  00000-0  11822-4 0  9999,2 49753  53.2177  54.3944 0001367 102.3380 257.7765 15.08837131105550,6917.889,95.438,540.7,538.808,0.0
49753.0,STARLINK-3200,PAYLOAD,2023-10-31 12:42:20,15.08831285,0.0001472,53.2187,50.5301,103.5888,256.5268,0.00044091,6.734e-05,0.0,0 STARLINK-3200,1 49753U 21115AF  23304.52939937  .00006734  00000-0  44091-3 0  9998,2 49753  53.2187  50.5301 0001472 103.5888 256.5268 15.08831285106795,6917.907,95.438,540.79,538.754,0.0
49753.0,STARLINK-3200,PAYLOAD,2023-10-31 14:17:43,15.08836836,0.0001427,53.2183,50.2336,104.8393,255.2758,0.00040777,6.207e-05,0.0,0 STARLINK-3200,1 49753U 21115AF  23304.59563828  .00006207  00000-0  40777-3 0  9999,2 49753  53.2183  50.2336 0001427 104.8393 255.2758 15.08836836105696,6917.89,95.438,540.742,538.768,0.0
49753.0,STARLINK-3200,PAYLOAD,2023-11-01 14:08:30,15.08848496,0.0001407,53.2168,45.7738,104.5186,255.5962,0.00052966,8.154e-05,0.0,0 STARLINK-3200,1 49753U 21115AF  23305.58923942  .00008154  00000-0  52966-3 0  9992,2 49753  53.2168  45.7738 0001407 104.5186 255.5962 15.08848496105841,6917.854,95.437,540.693,538.746,0.0
49753.0,STARLINK-3200,PAYLOAD,2023-11-02 12:23:54,15.08843477,0.0001566,53.2171,41.6068,75.3435,284.773,9.6243e-05,1.244e-05,0.0,0 STARLINK-3200,1 49753U 21115AF  23306.51659858  .00001244  00000-0  96243-4 0  9998,2 49753  53.2171  41.6068 0001566  75.3435 284.7730 15.08843477107094,6917.87,95.437,540.818,538.651,0.0
49753.0,STARLINK-3200,PAYLOAD,2023-11-02 13:59:17,15.0884896,0.0001386,53.2171,41.313,82.5815,277.5335,0.00024006,3.536e-05,0.0,0 STARLINK-3200,1 49753U 21115AF  23306.58283626  .00003536  00000-0  24006-3 0  9994,2 49753  53.2171  41.3130 0001386  82.5815 277.5335 15.08848960105993,6917.853,95.437,540.677,538.759,0.0
49753.0,STARLINK-3200,PAYLOAD,2023-11-03 13:50:03,15.08852321,0.000144,53.2185,36.8526,87.4244,272.6913,8.6984e-05,1.097e-05,0.0,0 STARLINK-3200,1 49753U 21115AF  23307.57643399  .00001097  00000-0  86984-4 0  9995,2 49753  53.2185  36.8526 0001440  87.4244 272.6913 15.08852321106149,6917.843,95.437,540.704,538.712,0.0
49753.0,STARLINK-3200,PAYLOAD,2023-11-03 23:22:23,15.08842099,0.0001599,53.2191,35.0688,83.2738,276.8436,6.7121e-05,7.8e-06,0.0,0 STARLINK-3200,1 49753U 21115AF  23307.97387868  .00000780  00000-0  67121-4 0  9995,2 49753  53.2191  35.0688 0001599  83.2738 276.8436 15.08842099107310,6917.874,95.437,540.845,538.633,0.0
49753.0,STARLINK-3200,PAYLOAD,2023-11-04 10:30:05,15.08835831,0.0001422,53.2191,32.9854,94.1386,265.9769,4.3847e-05,4.1e-06,0.0,0 STARLINK-3200,1 49753U 21115AF  23308.43756205  .00000410  00000-0  43847-4 0  9991,2 49753  53.2191  32.9854 0001422  94.1386 265.9769 15.08835831107387,6917.893,95.438,540.742,538.774,0.0
49753.0,STARLINK-3200,PAYLOAD,2023-11-04 12:05:28,15.08843212,0.0001545,53.2183,32.6872,90.1415,269.9754,2.7998e-05,1.58e-06,0.0,0 STARLINK-3200,1 49753U 21115AF  23308.50379937  .00000158  00000-0  27998-4 0  9990,2 49753  53.2183  32.6872 0001545  90.1415 269.9754 15.08843212106288,6917.871,95.437,540.804,538.667,0.0
49753.0,STARLINK-3200,PAYLOAD,2023-11-05 11:56:14,15.08862468,0.0001404,53.2178,28.2271,85.5538,274.5614,0.00049645,7.627e-05,0.0,0 STARLINK-3200,1 49753U 21115AF  23309.49739263  .00007627  00000-0  49645-3 0  9991,2 49753  53.2178  28.2271 0001404  85.5538 274.5614 15.08862468107545,6917.812,95.436,540.648,538.705,0.0
49753.0,STARLINK-3200,PAYLOAD,2023-11-06 11:47:02,15.08801067,0.0001083,53.2169,23.7665,82.3961,277.7154,-0.001044,-0.00016847,0.0,0 STARLINK-3200,1 49753U 21115AF  23310.49100562 -.00016847  00000-0 -10440-2 0  9993,2 49753  53.2169  23.7665 0001083  82.3961 277.7154 15.08801067107698,6917.999,95.44,540.614,539.115,0.0
49753.0,STARLINK-3200,PAYLOAD,2023-11-07 11:37:51,15.08813065,0.0001105,53.2178,19.3072,69.0033,291.1078,0.00021146,3.077e-05,0.0,0 STARLINK-3200,1 49753U 21115AF  23311.48462425  .00003077  00000-0  21146-3 0  9997,2 49753  53.2178  19.3072 0001105  69.0033 291.1078 15.08813065107841,6917.963,95.439,540.592,539.063,0.0
49753.0,STARLINK-3200,PAYLOAD,2023-11-08 03:31:43,15.08830009,0.0001037,53.2181,16.332,62.6686,297.4412,0.00082961,0.00012936,0.0,0 STARLINK-3200,1 49753U 21115AF  23312.14702911  .00012936  00000-0  82961-3 0  9994,2 49753  53.2181  16.3320 0001037  62.6686 297.4412 15.08830009107944,6917.911,95.438,540.493,539.059,0.0
49753.0,STARLINK-3200,PAYLOAD,2023-11-08 09:53:15,15.08846556,0.0001275,53.2192,15.1504,82.0494,278.0643,0.00088153,0.00013772,0.0,0 STARLINK-3200,1 49753U 21115AF  23312.41198417  .00013772  00000-0  88153-3 0  9992,2 49753  53.2192  15.1504 0001275  82.0494 278.0643 15.08846556107983,6917.86,95.437,540.607,538.843,0.0
49753.0,STARLINK-3200,PAYLOAD,2023-11-08 21:00:56,15.08859143,0.0001308,53.2196,13.068,91.2511,268.8631,0.00052366,8.06e-05,0.0,0 STARLINK-3200,1 49753U 21115AF  23312.87565641  .00008060  00000-0  52366-3 0  9990,2 49753  53.2196  13.0680 0001308  91.2511 268.8631 15.08859143106943,6917.822,95.436,540.592,538.782,0.0
49753.0,STARLINK-3200,PAYLOAD,2023-11-09 11:19:24,15.08858742,0.0001511,53.2194,10.3954,99.2097,260.9066,0.00032897,4.954e-05,0.0,0 STARLINK-3200,1 49753U 21115AF  23313.47181133  .00004954  00000-0  32897-3 0  9992,2 49753  53.2194  10.3954 0001511  99.2097 260.9066 15.08858742108141,6917.823,95.436,540.733,538.643,0.0
49753.0,STARLINK-3200,PAYLOAD,2023-11-09 12:54:47,15.08859597,0.0001514,53.2194,10.0979,99.2995,260.8169,0.00028175,4.201e-05,0.0,0 STARLINK-3200,1 49753U 21115AF  23313.53804974  .00004201  00000-0  28175-3 0  9993,2 49753  53.2194  10.0979 0001514  99.2995 260.8169 15.08859597107045,6917.82,95.436,540.733,538.638,0.0
